[{"OBJECT_NAME":"STARLINK-35734","OBJECT_ID":"2025-244V","EPOCH":"2026-03-09T17:29:55.478112","MEAN_MOTION":15.30199472,"ECCENTRICITY":0.00010409,"INCLINATION":53.1576,"RA_OF_ASC_NODE":229.8587,"ARG_OF_PERICENTER":60.4989,"MEAN_ANOMALY":299.6116,"EPHEMERIS_TYPE":0,"CLASSIFICATION_TYPE":"U","NORAD_CAT_ID":66225,"ELEMENT_SET_NO":999,"REV_AT_EPOCH":2166,"BSTAR":0.00077581515,"MEAN_MOTION_DOT":0.00022688,"MEAN_MOTION_DDOT":0},{"OBJECT_NAME":"PEGASUS DEB","OBJECT_ID":"1994-029AER","EPOCH":"2026-02-26T06:39:21.581568","MEAN_MOTION":15.03561005,"ECCENTRICITY":0.01227406,"INCLINATION":81.7323,"RA_OF_ASC_NODE":356.2383,"ARG_OF_PERICENTER":77.7128,"MEAN_ANOMALY":283.7806,"EPHEMERIS_TYPE":0,"CLASSIFICATION_TYPE":"U","NORAD_CAT_ID":39306,"ELEMENT_SET_NO":999,"REV_AT_EPOCH":9218,"BSTAR":0.0046128236,"MEAN_MOTION_DOT":0.00074995,"MEAN_MOTION_DDOT":0}]
